{"fetched_at":"2026-03-29T02:12:04Z","count":15717,"tles":[{"name":"KINEIS-5E","line1":"1 62083U 24219C   26086.48802338  .00000293  00000+0  53987-4 0  9994","line2":"2 62083  97.9358 247.7160 0005534 117.3564 242.8208 14.72335915 71748","category":"Other"}]}